NORAD_CAT_ID,OBJECT_NAME,OBJECT_TYPE,EPOCH,MEAN_MOTION,ECCENTRICITY,INCLINATION,RA_OF_ASC_NODE,ARG_OF_PERICENTER,MEAN_ANOMALY,BSTAR,MEAN_MOTION_DOT,MEAN_MOTION_DDOT,TLE_LINE0,TLE_LINE1,TLE_LINE2,SEMIMAJOR_AXIS,PERIOD,APOGEE,PERIGEE,DECAYED
52862.0,STARLINK-4010,PAYLOAD,2022-11-18 12:21:07,15.08835914,0.0001441999999999,53.2186,43.328,52.91,307.2023,0.00015427,2.168e-05,0.0,0 STARLINK-4010,1 52862U 22062AJ  22322.51467404  .00002168  00000-0  15427-3 0  9996,2 52862  53.2186  43.3280 0001442  52.9100 307.2023 15.08835914 24173,6917.893,95.438,540.755,538.76,0.0
52862.0,STARLINK-4010,PAYLOAD,2022-11-18 17:07:16,15.08839812,0.0001485,53.2185,42.4357,51.4627,308.6498,0.00018659,2.683e-05,0.0,0 STARLINK-4010,1 52862U 22062AJ  22322.71339076  .00002683  00000-0  18659-3 0  9993,2 52862  53.2185  42.4357 0001485  51.4627 308.6498 15.08839812 23713,6917.880999999999,95.438,540.773,538.719,0.0
52862.0,STARLINK-4010,PAYLOAD,2022-11-19 05:50:22,15.08842127,0.0001425,53.2188,40.0564,48.9193,311.1922,0.00013144,1.805e-05,0.0,0 STARLINK-4010,1 52862U 22062AJ  22323.24331063  .00001805  00000-0  13144-3 0  9999,2 52862  53.2188  40.0564 0001425  48.9193 311.1922 15.08842127 23795,6917.874,95.437,540.725,538.753,0.0
52862.0,STARLINK-4010,PAYLOAD,2022-11-20 04:05:46,15.08837415,0.0001524,53.2184,35.8936,52.72,307.3931,3.9916e-05,3.47e-06,0.0,0 STARLINK-4010,1 52862U 22062AJ  22324.17067717  .00000347  00000-0  39916-4 0  9990,2 52862  53.2184  35.8936 0001524  52.7200 307.3931 15.08837415 24420,6917.888000000001,95.438,540.808,538.6990000000002,0.0
52862.0,STARLINK-4010,PAYLOAD,2022-11-20 12:02:42,15.08837963,0.0001658,53.2193,34.4084,43.0984,317.0138,-2.2658e-05,-6.49e-06,0.0,0 STARLINK-4010,1 52862U 22062AJ  22324.50187895 -.00000649  00000-0 -22658-4 0  9999,2 52862  53.2193  34.4084 0001658  43.0984 317.0138 15.08837963 23984,6917.887,95.438,540.899,538.605,0.0
52862.0,STARLINK-4010,PAYLOAD,2022-11-20 21:35:00,15.0883959,0.0001651,53.2192,32.623000000000005,50.4918,309.622,-6.903600000000001e-05,-1.387e-05,0.0,0 STARLINK-4010,1 52862U 22062AJ  22324.89931648 -.00001387  00000-0 -69036-4 0  9995,2 52862  53.2192  32.6230 0001651  50.4918 309.6220 15.08839590 24043,6917.882,95.438,540.889,538.604,0.0
52862.0,STARLINK-4010,PAYLOAD,2022-11-21 10:18:06,15.08864665,0.0001541999999999,53.2197,30.2451,66.3311,293.7843,-0.00047581,-7.858e-05,0.0,0 STARLINK-4010,1 52862U 22062AJ  22325.42923785 -.00007858  00000-0 -47581-3 0  9997,2 52862  53.2197  30.2451 0001542  66.3311 293.7843 15.08864665 24617,6917.805,95.436,540.737,538.6030000000002,0.0
52862.0,STARLINK-4010,PAYLOAD,2022-11-21 11:53:29,15.08832048,0.0001573,53.2197,29.9478,50.8377,309.2755,-6.477699999999999e-05,-1.319e-05,0.0,0 STARLINK-4010,1 52862U 22062AJ  22325.49548485 -.00001319  00000-0 -64777-4 0  9997,2 52862  53.2197  29.9478 0001573  50.8377 309.2755 15.08832048 24137,6917.905,95.438,540.8580000000002,538.682,0.0
52862.0,STARLINK-4010,PAYLOAD,2022-11-21 13:28:52,15.08833715,0.0001523,53.2194,29.65,58.9374,301.1768,-5.9812e-05,-1.24e-05,0.0,0 STARLINK-4010,1 52862U 22062AJ  22325.56172341 -.00001240  00000-0 -59812-4 0  9996,2 52862  53.2194  29.6500 0001523  58.9374 301.1768 15.08833715 24630,6917.9,95.438,540.818,538.711,0.0
52862.0,STARLINK-4010,PAYLOAD,2022-11-21 21:25:48,15.0883645,0.0001665,53.2193,28.1632,52.1758,307.9384,2.4805e-05,1.07e-06,0.0,0 STARLINK-4010,1 52862U 22062AJ  22325.89292071  .00000107  00000-0  24805-4 0  9998,2 52862  53.2193  28.1632 0001665  52.1758 307.9384 15.08836450 24196,6917.891,95.438,540.908,538.604,0.0
52862.0,STARLINK-4010,PAYLOAD,2022-11-22 03:47:20,15.08841816,0.0001592,53.2194,26.9732,48.9045,311.2085,3.2387e-05,2.27e-06,0.0,0 STARLINK-4010,1 52862U 22062AJ  22326.15787754  .00000227  00000-0  32387-4 0  9992,2 52862  53.2194  26.9732 0001592  48.9045 311.2085 15.08841816 24722,6917.875,95.437,540.841,538.639,0.0
52862.0,STARLINK-4010,PAYLOAD,2022-11-22 13:19:38,15.08848628,0.0001706999999999,53.2191,25.1891,57.4917,302.624,9.9931e-05,1.303e-05,0.0,0 STARLINK-4010,1 52862U 22062AJ  22326.55531056  .00001303  00000-0  99931-4 0  9992,2 52862  53.2191  25.1891 0001707  57.4917 302.6240 15.08848628 24788,6917.854,95.437,540.9,538.538,0.0
52862.0,STARLINK-4010,PAYLOAD,2022-11-23 09:59:40,15.08833913,0.0001395,53.2191,21.3229,57.4618,302.6509,5.9648e-05,6.61e-06,0.0,0 STARLINK-4010,1 52862U 22062AJ  22327.41644151  .00000661  00000-0  59648-4 0  9996,2 52862  53.2191  21.3229 0001395  57.4618 302.6509 15.08833913 24916,6917.899,95.438,540.729,538.799,0.0
52862.0,STARLINK-4010,PAYLOAD,2022-11-24 09:50:27,15.08847112,0.0001733,53.2186,16.863,48.5693,311.5448,4.0612e-05,3.58e-06,0.0,0 STARLINK-4010,1 52862U 22062AJ  22328.41003587  .00000358  00000-0  40612-4 0  9993,2 52862  53.2186  16.8630 0001733  48.5693 311.5448 15.08847112 25069,6917.859,95.437,540.923,538.525,0.0
52862.0,STARLINK-4010,PAYLOAD,2022-11-24 20:58:08,15.08849643,0.000168,53.219,14.7808,53.2733,306.8413,-2.5505e-05,-6.94e-06,0.0,0 STARLINK-4010,1 52862U 22062AJ  22328.87371327 -.00000694  00000-0 -25505-4 0  9992,2 52862  53.2190  14.7808 0001680  53.2733 306.8413 15.08849643 24640,6917.851,95.437,540.878,538.554,0.0
52862.0,STARLINK-4010,PAYLOAD,2022-11-25 09:41:13,15.08841127,0.0001773,53.2191,12.4018,52.5707,307.5446,9.3838e-05,1.206e-05,0.0,0 STARLINK-4010,1 52862U 22062AJ  22329.40363415  .00001206  00000-0  93838-4 0  9993,2 52862  53.2191  12.4018 0001773  52.5707 307.5446 15.08841127 24727,6917.877,95.437,540.9680000000002,538.515,0.0
52862.0,STARLINK-4010,PAYLOAD,2022-11-25 14:27:23,15.08844988,0.0001784,53.219,11.5098,52.0046,308.1108,0.00012177,1.651e-05,0.0,0 STARLINK-4010,1 52862U 22062AJ  22329.60235104  .00001651  00000-0  12177-3 0  9998,2 52862  53.2190  11.5098 0001784  52.0046 308.1108 15.08844988 25245,6917.865,95.437,540.964,538.496,0.0
52862.0,STARLINK-4010,PAYLOAD,2022-11-26 12:42:46,15.08846879,0.0001756,53.2187,7.3469,46.4291,313.6846,1.0664000000000003e-05,-1.18e-06,0.0,0 STARLINK-4010,1 52862U 22062AJ  22330.52970934 -.00000118  00000-0  10664-4 0  9996,2 52862  53.2187   7.3469 0001756  46.4291 313.6846 15.08846879 24895,6917.859,95.437,540.939,538.51,0.0
52862.0,STARLINK-4010,PAYLOAD,2022-11-26 19:04:19,15.08842443,0.0001796,53.219,6.1563,48.0353,312.0792,-1.8627e-05,-5.85e-06,0.0,0 STARLINK-4010,1 52862U 22062AJ  22330.79467209 -.00000585  00000-0 -18627-4 0  9997,2 52862  53.2190   6.1563 0001796  48.0353 312.0792 15.08842443 25428,6917.873000000001,95.437,540.98,538.495,0.0
52862.0,STARLINK-4010,PAYLOAD,2022-11-27 10:58:11,15.08834614,0.0001813,53.219,3.1845,47.2571,312.8574,-6.1442e-05,-1.266e-05,0.0,0 STARLINK-4010,1 52862U 22062AJ  22331.45707870 -.00001266  00000-0 -61442-4 0  9992,2 52862  53.2190   3.1845 0001813  47.2571 312.8574 15.08834614 25529,6917.897,95.438,541.016,538.508,0.0
52862.0,STARLINK-4010,PAYLOAD,2022-11-27 18:55:07,15.0883735,0.0001832,53.219,1.6979,47.167,312.9475,-4.7248e-05,-1.04e-05,0.0,0 STARLINK-4010,1 52862U 22062AJ  22331.78827743 -.00001040  00000-0 -47248-4 0  9998,2 52862  53.2190   1.6979 0001832  47.1670 312.9475 15.08837350 25082,6917.888000000001,95.438,541.021,538.486,0.0
52862.0,STARLINK-4010,PAYLOAD,2022-11-28 12:24:22,15.08830137,0.0001781,53.2201,358.4288,49.816,310.2988,-1.2175999999999997e-05,-4.82e-06,0.0,0 STARLINK-4010,1 52862U 22062AJ  22332.51692448 -.00000482  00000-0 -12176-4 0  9993,2 52862  53.2201 358.4288 0001781  49.8160 310.2988 15.08830137 25689,6917.911,95.438,541.008,538.543,0.0
52862.0,STARLINK-4010,PAYLOAD,2022-11-29 01:07:26,15.08838281,0.0001883,53.2193,356.0483,47.6931,312.422,7.0098e-05,8.28e-06,0.0,0 STARLINK-4010,1 52862U 22062AJ  22333.04683841  .00000828  00000-0  70098-4 0  9998,2 52862  53.2193 356.0483 0001883  47.6931 312.4220 15.08838281 25765,6917.886,95.438,541.053,538.448,0.0
52862.0,STARLINK-4010,PAYLOAD,2022-11-29 18:36:41,15.08833499,0.00019,53.2188,352.7779,47.5998,312.5155,5.1522e-05,5.32e-06,0.0,0 STARLINK-4010,1 52862U 22062AJ  22333.77548435  .00000532  00000-0  51522-4 0  9990,2 52862  53.2188 352.7779 0001900  47.5998 312.5155 15.08833499 25878,6917.9,95.438,541.08,538.451,0.0
52862.0,STARLINK-4010,PAYLOAD,2022-11-30 04:09:01,15.08824133,0.0001885,53.2188,350.9923,44.503,315.6113,6.6703e-05,7.73e-06,0.0,0 STARLINK-4010,1 52862U 22062AJ  22334.17293163  .00000773  00000-0  66703-4 0  9994,2 52862  53.2188 350.9923 0001885  44.5030 315.6113 15.08824133 25935,6917.929,95.439,541.0980000000002,538.49,0.0
52862.0,STARLINK-4010,PAYLOAD,2022-11-30 10:30:34,15.08826985,0.0001886,53.2189,349.8028,44.6777,315.4367,1.05e-05,-1.21e-06,0.0,0 STARLINK-4010,1 52862U 22062AJ  22334.43789403 -.00000121  00000-0  10500-4 0  9992,2 52862  53.2189 349.8028 0001886  44.6777 315.4367 15.08826985 25485,6917.92,95.438,541.09,538.48,0.0
52862.0,STARLINK-4010,PAYLOAD,2022-11-30 18:27:29,15.08833635,0.0001868,53.2189,348.316,44.9311,315.1832,3.8204e-05,3.2e-06,0.0,0 STARLINK-4010,1 52862U 22062AJ  22334.76909066  .00000320  00000-0  38204-4 0  9998,2 52862  53.2189 348.3160 0001868  44.9311 315.1832 15.08833635 26028,6917.9,95.438,541.057,538.4730000000002,0.0
52862.0,STARLINK-4010,PAYLOAD,2022-12-01 03:59:47,15.08844897,0.0001864,53.2187,346.5319,46.5988,313.5159,2.8632e-05,1.68e-06,0.0,0 STARLINK-4010,1 52862U 22062AJ  22335.16652444  .00000168  00000-0  28632-4 0  9992,2 52862  53.2187 346.5319 0001864  46.5988 313.5159 15.08844897 26088,6917.865,95.437,541.02,538.441,0.0
52862.0,STARLINK-4010,PAYLOAD,2022-12-01 10:21:19,15.08851814,0.0001961,53.2187,345.3424,51.2343,308.8824,3.7028e-05,3.01e-06,0.0,0 STARLINK-4010,1 52862U 22062AJ  22335.43147902  .00000301  00000-0  37028-4 0  9998,2 52862  53.2187 345.3424 0001961  51.2343 308.8824 15.08851814 25631,6917.844,95.437,541.066,538.3530000000002,0.0
